#dP2021 12 11  0  0  0.00000000     289 d+D   IGS14 FIT AIUB
## 2187 518400.00000000   300.00000000 59559 0.0000000000000
+  117   G01G02G03G04G05G06G07G08G09G10G11G12G13G14G15G16G17
+        G18G19G20G21G22G23G24G25G26G27G28G29G30G31G32R01R02
+        R03R04R05R07R08R09R11R12R13R14R15R16R17R18R19R20R21
+        R22R24E01E02E03E04E05E07E08E09E11E12E13E14E15E18E19
+        E21E24E25E26E27E30E31E33E36C06C07C08C09C10C11C12C13
+        C14C16C19C20C21C22C23C24C25C26C27C28C29C30C32C33C34
+        C35C36C37C38C39C40C41C42C43C44C45C46J01J02J03  0  0
++         5  5  5  5  5  5  5  5  5  5  6  5  5  5  5  5  5
++         5  5  5  5  5  5  5  5  5  5  5  5  5  5  5  5  5
++         5  5  5  5  5  5  5  5  5  5  5  5  5  5  5  5  5
++         5  5  5  5  5  5  5  5  5  5  5  5  5  5  5  5  5
++         5  5  5  5  5  5  5  5  5  5  6  5  5 10  5  5  5
++         5  5  5  5  5  5  5  5  5  5  5  5  5  5  5  5  5
++         5  5  5  5  5  5  5  5  5  5  5  5  5  5  5  0  0
%c M  cc GPS ccc cccc cccc cccc cccc ccccc ccccc ccccc ccccc
%c cc cc ccc ccc cccc cccc cccc cccc ccccc ccccc ccccc ccccc
%f  1.2500000  1.025000000  0.00000000000  0.000000000000000
%f  0.0000000  0.000000000  0.00000000000  0.000000000000000
%i    0    0    0    0      0      0      0      0         0
%i    0    0    0    0      0      0      0      0         0
/* Center for Orbit Determination in Europe (CODE)                              
/* MGEX orbits and clocks for year-day 2021-3450                                
/* Middle day of a 3-day long-arc multi-GNSS solution                           
/* Systems considered: GPS/GLONASS/Galileo/BeiDou/QZSS                          
/* Product reference - DOI 10.7892/boris.75882.3                                
/* PCV:IGS14      OL/AL:FES2014b NONE     YN ORB:CoN CLK:CoN                    
*  2021 12 11 14 30  0.00000000
PG01 -13140.885314  15860.812817  16296.145127    486.907583
PG02  14065.965674   6835.552020 -20794.474114   -645.302910
PG03 -22510.505566  13095.191607  -5044.141481    -38.352840
PG04 -14324.250603   7364.883775 -21131.458638   -199.379359
PG05  24507.697414  -3681.962201  -9920.136385    -64.047315
PG06   6396.355771  21632.549757 -13901.716336    140.013158
PG07  -5440.180893  25537.243808  -2707.432857    289.545763
PG08 -21525.423815  -2422.214038  15577.784208    -47.669544
PG09  -3001.281343  16206.911508 -20895.714322   -360.621318
PG10  -2998.777471 -14929.814907  21866.505326   -266.245436
PG11  13045.174987   9790.593385 -20971.415814     13.776032
PG12  24069.755276 -10570.488456  -3482.883934   -139.218023
PG13  21588.217917  11014.195717  10891.463000    227.874222
PG14   2034.123463  15462.096186  21491.340122    -53.444465
PG15  21685.814019   -398.370646  15140.177720    -99.949663
PG16 -23827.043862  -1380.776549 -12384.714489   -438.655381
PG17   9440.792785  20702.868408  14115.735106    545.987953
PG18   5453.979125 -25841.605882  -2236.246997    281.301953
PG19  16120.330780  20418.152795   5530.950647     90.815248
PG20  19112.431611   3695.439628 -17967.890059    517.693980
PG21 -15323.283617   6226.890174  21350.171326    153.453018
PG22 -24254.833623   9720.857220   4247.081981   -443.922630
PG23   9607.298648 -17505.214440  17450.789660     23.041869
PG24  14361.089661 -11788.145493  18544.601539    274.059344
PG25  16193.329596 -16650.329108 -12895.883469    254.139589
PG26 -14433.840595  -9544.793883 -20290.933536    163.965495
PG27 -23017.028170 -11648.596616   6929.124463   -229.748851
PG28   9773.960301  12564.568004  21764.714295    445.276718
PG29   7719.299275 -12785.773602 -22000.641085   -452.551694
PG30   1308.654490  25494.117434   6933.747475   -498.475312
PG31  -8188.248589 -19647.126435 -15698.040151   -154.521282
PG32 -14065.283695 -20012.966012  10695.545220    -33.673068
PR01  21808.043226   8587.038115 -10081.560941     89.329654
PR02  23416.011811   -195.608938  10068.098886    502.923011
PR03  10374.261823  -8516.589814  21714.645418     47.949329
PR04  -8234.569725 -11694.371927  21145.234929    118.312430
PR05 -22324.263673  -8637.651350   8860.061033     83.995737
PR07  -9799.080318   8688.495535 -21868.563440    -39.303764
PR08   8305.593679  11752.052963 -21004.240752    -62.503458
PR09 -18312.826559  11840.641362 -13158.558338     28.182430
PR11  -3357.607842  17486.383011  18270.336969     49.075296
PR12  10937.097286   3897.038100  22734.164349    285.639898
PR13  18101.477635 -11171.830785  14057.561574    -64.699970
PR14  14881.263343 -20365.873367  -3828.480186     71.958346
PR15   2975.991899 -17157.105354 -18619.617111     99.655711
PR16 -12075.682517  -2414.915408 -22380.484117    -26.628254
PR17   2673.340663 -17668.795918 -18168.203148    482.625223
PR18  -6503.507437 -24432.616264  -3545.071438    100.112549
PR19 -11519.127777 -19286.500563  12082.545960   -170.298501
PR20 -10805.486962   -279.733684  23121.457220    -60.998201
PR21  -1913.376761  18676.133741  17291.218612   -261.399504
PR22   6784.896950  24399.105279   2608.749067   -150.796288
PR24  11033.065898   -857.427575 -22960.485752     70.731238
PE01 -17379.480656  -7534.958798 -22745.179856   -535.765312
PE02  17472.048334   7442.673681  22699.283557    266.159692
PE03  24836.611897  15879.385777  -2735.988926   -505.245616
PE04 -25532.227744  -2081.525901 -14837.402677   -918.523796
PE05   9528.784621  20591.419266 -19014.158241   -227.267171
PE07  11124.670436 -13255.523488  24012.084957   -616.470643
PE08  25341.908529   1734.042261  15196.230754   5890.612380
PE09 -10779.069533  13319.347460 -24141.369087   5433.581380
PE11  -9087.112568  23904.133100  14897.326592   4913.259140
PE12 -15956.157724   3823.964677  24640.499174   4866.142050
PE13   9284.025558 -23508.013041 -15396.215888    424.578306
PE14 -15533.658571 -20470.548962  -6431.300226  -1670.951420
PE15  15871.201614  -3757.746241 -24689.689683    775.889240
PE18  26034.709276  14716.618979  -7715.726310  -1837.826660
PE19 -23632.401894 -17093.297799   5070.665336    449.531369
PE21    982.194535 -18708.302837 -22912.862778   -704.674972
PE24 -20646.962266  19305.830236   8827.745367  -1274.076810
PE25  -1256.061943  18809.247853  22832.120314   -556.517367
PE26  -3300.694231 -29149.481334   3920.517779   -557.526815
PE27  19739.994800 -19704.934578  -9880.481160   -184.474281
PE30  26689.114032  -8091.451346   9881.507818   -101.185282
PE31 -26739.974266   9121.387520  -8839.270801   -489.219306
PE33 -13085.933248 -18128.145429  19408.459797   -461.556927
PE36   2712.633235  29333.531772  -2880.056079   -302.370078
PC06      4.974313  34638.013162 -23946.265594    619.906012
PC07 -13069.111150  26357.530294  30183.832020    134.360916
PC08 -14989.939859  38529.573069  -8672.113684    -31.614929
PC09   4459.174476  37221.112125 -18516.007152   -339.754665
PC10  -3169.688060  27057.261255  32388.083135    136.996882
PC11  12468.125488  -8993.416303 -23215.746306   -339.794053
PC12  18940.913781  10099.968932 -17799.332049   -425.850431
PC13 -10871.967048  38883.195366 -12523.281060   -181.348673
PC14  23469.294497  -8613.703730  12465.266011    500.954899
PC16  -4216.909167  31166.189480 -27845.668511     20.194415
PC19 -15291.969775  13224.828684 -19213.438632    923.984796
PC20 -27122.834532   3675.978690  -5378.587895   -794.045555
PC21  23382.372299   8691.035381 -12513.181548   -946.160572
PC22   5863.960402  15503.690979 -22457.814728   -967.344427
PC23   1686.899329 -23632.561483 -14734.122927   -963.124740
PC24  19797.415469  -8649.207383  17634.641402   -952.602452
PC25  14356.345260 -23879.548331   1281.421226   -811.621763
PC26  13458.204825   9143.985955  22661.975779    809.329697
PC27 -18376.487818 -18112.272680  10632.872592    643.457258
PC28  -8739.217742 -25606.111533  -6815.166175      7.608833
PC29  -5478.298748  18266.027263  20371.233975    486.151136
PC30 -17581.000249    -64.837675  21674.872095    488.453090
PC32 -23386.848038  -8573.369610  12589.055030   -957.382106
PC33  15320.079974 -13309.476426  19157.163850   -961.826166
PC34  17232.447147   -933.600671 -21930.586643   -517.158883
PC35   9189.218949  25288.979914   7336.860678     41.208060
PC36 -15152.941378  23377.335302  -1703.255962   -829.074732
PC37 -12610.558955 -10426.335270 -22590.390704   -910.273275
PC38 -19851.133915  37294.088791   1059.457923    195.812074
PC39  -6831.678010  27979.231064 -30759.873423     34.264467
PC40 -20409.691465  19672.946284  31169.128211    225.571312
PC41  -5441.176604 -15594.672221  22537.811435   -916.049239
PC42  27362.753073  -3165.025611   4543.394892   -934.389695
PC43   6123.987777 -17844.526937 -20571.923721   -955.152994
PC44  19000.190417  17552.447136 -10436.607771    494.698780
PC45  -1577.469084  23534.399788  14935.507729    624.086105
PC46 -19837.288379  10056.975304 -16881.092911    -55.022321
PJ01 -31441.236832  13252.575633 -20179.496163    101.097866
PJ02 -29952.507238  29406.255953   8748.406610     -0.334809
PJ03 -24983.212634  24810.815227  28289.764590     -8.905162
EOF
